{
    "links": {
        "self": "http://www.neowsapp.com/rest/v1/neo/3986768?api_key=iIulBulltgU6a56xZRHN4H3l9WmuAYTsLGpBGhQ2"
    },
    "id": "3986768",
    "neo_reference_id": "3986768",
    "name": "(2020 BQ1)",
    "designation": "2020 BQ1",
    "nasa_jpl_url": "http://ssd.jpl.nasa.gov/sbdb.cgi?sstr=3986768",
    "absolute_magnitude_h": 23.116,
    "estimated_diameter": {
        "kilometers": {
            "estimated_diameter_min": 0.0632928973,
            "estimated_diameter_max": 0.1415272209
        },
        "meters": {
            "estimated_diameter_min": 63.2928973267,
            "estimated_diameter_max": 141.5272209154
        },
        "miles": {
            "estimated_diameter_min": 0.0393283709,
            "estimated_diameter_max": 0.0879409108
        },
        "feet": {
            "estimated_diameter_min": 207.6538692653,
            "estimated_diameter_max": 464.3281674681
        }
    },
    "is_potentially_hazardous_asteroid": false,
    "close_approach_data": [
        {
            "close_approach_date": "1987-01-27",
            "close_approach_date_full": "1987-Jan-27 13:17",
            "epoch_date_close_approach": 538751820000,
            "relative_velocity": {
                "kilometers_per_second": "18.748768828",
                "kilometers_per_hour": "67495.5677806542",
                "miles_per_hour": "41939.1209912626"
            },
            "miss_distance": {
                "astronomical": "0.4431812064",
                "lunar": "172.3974892896",
                "kilometers": "66298964.501470368",
                "miles": "41196266.2449643584"
            },
            "orbiting_body": "Earth"
        },
        {
            "close_approach_date": "2020-02-07",
            "close_approach_date_full": "2020-Feb-07 00:32",
            "epoch_date_close_approach": 1581035520000,
            "relative_velocity": {
                "kilometers_per_second": "11.1202786567",
                "kilometers_per_hour": "40033.0031641898",
                "miles_per_hour": "24874.9513272156"
            },
            "miss_distance": {
                "astronomical": "0.1684258319",
                "lunar": "65.5176486091",
                "kilometers": "25196145.705218053",
                "miles": "15656158.9554850114"
            },
            "orbiting_body": "Earth"
        },
        {
            "close_approach_date": "2046-02-02",
            "close_approach_date_full": "2046-Feb-02 22:43",
            "epoch_date_close_approach": 2401224180000,
            "relative_velocity": {
                "kilometers_per_second": "13.8688341388",
                "kilometers_per_hour": "49927.8028998089",
                "miles_per_hour": "31023.1950851618"
            },
            "miss_distance": {
                "astronomical": "0.2429428634",
                "lunar": "94.5047738626",
                "kilometers": "36343734.896340958",
                "miles": "22582949.6792949004"
            },
            "orbiting_body": "Earth"
        }
    ],
    "orbital_data": {
        "orbit_id": "12",
        "orbit_determination_date": "2020-03-11 05:59:00",
        "first_observation_date": "2020-01-18",
        "last_observation_date": "2020-02-24",
        "data_arc_in_days": 37,
        "observations_used": 55,
        "orbit_uncertainty": "7",
        "minimum_orbit_intersection": ".168234",
        "jupiter_tisserand_invariant": "3.957",
        "epoch_osculation": "2459000.5",
        "eccentricity": ".3902340783881293",
        "semi_major_axis": "1.773303384576383",
        "inclination": "17.95271613564782",
        "ascending_node_longitude": "302.6930826782107",
        "orbital_period": "862.5275809089742",
        "perihelion_distance": "1.081299972593668",
        "perihelion_argument": "227.7355281639254",
        "aphelion_distance": "2.465306796559098",
        "perihelion_time": "2458918.377752273440",
        "mean_anomaly": "34.27601602073482",
        "mean_motion": ".4173779574916482",
        "equinox": "J2000",
        "orbit_class": {
            "orbit_class_type": "AMO",
            "orbit_class_description": "Near-Earth asteroid orbits similar to that of 1221 Amor",
            "orbit_class_range": "1.017 AU < q (perihelion) < 1.3 AU"
        }
    },
    "is_sentry_object": false
}